{
  "type": "FeatureCollection",
  "features": [
    {
      "type": "Feature",
      "properties": {
        "norad_id": 37238,
        "name": "INTELSAT 17 (IS-17)",
        "group": "intelsat",
        "lat": -0.007995192827032063,
        "lon": -68.8798553964976,
        "alt_km": 35776.48508462364,
        "timestamp": "2025-12-09T09:46:47.314852+00:00",
        "meta_object_name": "INTELSAT 17 (IS-17)",
        "meta_object_id": "2010-065B",
        "meta_epoch": "2025-12-09T03:36:51.318144",
        "meta_mean_motion": 1.00273452,
        "meta_eccentricity": 0.000249,
        "meta_inclination": 0.0157,
        "meta_ra_of_asc_node": 282.9956,
        "meta_arg_of_pericenter": 338.0088,
        "meta_mean_anomaly": 297.3668,
        "meta_ephemeris_type": 0,
        "meta_classification_type": "U",
        "meta_norad_cat_id": 37238,
        "meta_element_set_no": 999,
        "meta_rev_at_epoch": 5134,
        "meta_bstar": 0,
        "meta_mean_motion_dot": 0,
        "meta_mean_motion_ddot": 0,
        "tle_line1": "1 37238U 10065B   25343.15059396  .00000000  00000+0  00000+0 0  9998",
        "tle_line2": "2 37238   0.0157 282.9956 0002490 338.0088 297.3668  1.00273452 51342"
      },
      "geometry": {
        "type": "Point",
        "coordinates": [
          -68.8798553964976,
          -0.007995192827032063
        ]
      }
    },
    {
      "type": "Feature",
      "properties": {
        "norad_id": 37392,
        "name": "INTELSAT 28 (IS-28)",
        "group": "intelsat",
        "lat": 1.2396132568622735,
        "lon": -166.64506296671803,
        "alt_km": 35780.02334977354,
        "timestamp": "2025-12-09T09:46:47.314864+00:00",
        "meta_object_name": "INTELSAT 28 (IS-28)",
        "meta_object_id": "2011-016A",
        "meta_epoch": "2025-12-09T03:09:01.481760",
        "meta_mean_motion": 1.00272258,
        "meta_eccentricity": 0.0003998,
        "meta_inclination": 1.3153,
        "meta_ra_of_asc_node": 85.0987,
        "meta_arg_of_pericenter": 178.3056,
        "meta_mean_anomaly": 190.2771,
        "meta_ephemeris_type": 0,
        "meta_classification_type": "U",
        "meta_norad_cat_id": 37392,
        "meta_element_set_no": 999,
        "meta_rev_at_epoch": 5138,
        "meta_bstar": 0,
        "meta_mean_motion_dot": -2.23e-06,
        "meta_mean_motion_ddot": 0,
        "tle_line1": "1 37392U 11016A   25343.13126715 -.00000223  00000+0  00000+0 0  9992",
        "tle_line2": "2 37392   1.3153  85.0987 0003998 178.3056 190.2771  1.00272258 51386"
      },
      "geometry": {
        "type": "Point",
        "coordinates": [
          -166.64506296671803,
          1.2396132568622735
        ]
      }
    },
    {
      "type": "Feature",
      "properties": {
        "norad_id": 37834,
        "name": "INTELSAT 18 (IS-18)",
        "group": "intelsat",
        "lat": 0.03447880226034313,
        "lon": 45.10351101527555,
        "alt_km": 35793.13583092027,
        "timestamp": "2025-12-09T09:46:47.314876+00:00",
        "meta_object_name": "INTELSAT 18 (IS-18)",
        "meta_object_id": "2011-056A",
        "meta_epoch": "2025-12-09T02:26:43.035072",
        "meta_mean_motion": 1.00271197,
        "meta_eccentricity": 0.0002074,
        "meta_inclination": 0.0176,
        "meta_ra_of_asc_node": 340.5997,
        "meta_arg_of_pericenter": 282.5896,
        "meta_mean_anomaly": 31.5846,
        "meta_ephemeris_type": 0,
        "meta_classification_type": "U",
        "meta_norad_cat_id": 37834,
        "meta_element_set_no": 999,
        "meta_rev_at_epoch": 5190,
        "meta_bstar": 0,
        "meta_mean_motion_dot": 5.5e-07,
        "meta_mean_motion_ddot": 0,
        "tle_line1": "1 37834U 11056A   25343.10188698  .00000055  00000+0  00000+0 0  9994",
        "tle_line2": "2 37834   0.0176 340.5997 0002074 282.5896  31.5846  1.00271197 51901"
      },
      "geometry": {
        "type": "Point",
        "coordinates": [
          45.10351101527555,
          0.03447880226034313
        ]
      }
    },
    {
      "type": "Feature",
      "properties": {
        "norad_id": 38098,
        "name": "INTELSAT 22 (IS-22)",
        "group": "intelsat",
        "lat": -0.015160835219200003,
        "lon": -62.77977108834147,
        "alt_km": 35779.974609906465,
        "timestamp": "2025-12-09T09:46:47.314890+00:00",
        "meta_object_name": "INTELSAT 22 (IS-22)",
        "meta_object_id": "2012-011A",
        "meta_epoch": "2025-12-08T23:20:38.624928",
        "meta_mean_motion": 1.00274102,
        "meta_eccentricity": 0.00015396,
        "meta_inclination": 0.0193,
        "meta_ra_of_asc_node": 310.404,
        "meta_arg_of_pericenter": 313.6812,
        "meta_mean_anomaly": 236.1604,
        "meta_ephemeris_type": 0,
        "meta_classification_type": "U",
        "meta_norad_cat_id": 38098,
        "meta_element_set_no": 999,
        "meta_rev_at_epoch": 528,
        "meta_bstar": 0,
        "meta_mean_motion_dot": -5.7e-07,
        "meta_mean_motion_ddot": 0,
        "tle_line1": "1 38098U 12011A   25342.97266927 -.00000057  00000+0  00000+0 0  9998",
        "tle_line2": "2 38098   0.0193 310.4040 0001539 313.6812 236.1604  1.00274102  5281"
      },
      "geometry": {
        "type": "Point",
        "coordinates": [
          -62.77977108834147,
          -0.015160835219200003
        ]
      }
    },
    {
      "type": "Feature",
      "properties": {
        "norad_id": 38356,
        "name": "INTELSAT 19 (IS-19)",
        "group": "intelsat",
        "lat": 0.02390607408616698,
        "lon": 31.12976984404312,
        "alt_km": 35794.85478350202,
        "timestamp": "2025-12-09T09:46:47.314902+00:00",
        "meta_object_name": "INTELSAT 19 (IS-19)",
        "meta_object_id": "2012-030A",
        "meta_epoch": "2025-12-09T03:34:38.599104",
        "meta_mean_motion": 1.00271628,
        "meta_eccentricity": 0.0003541,
        "meta_inclination": 0.0095,
        "meta_ra_of_asc_node": 336.3973,
        "meta_arg_of_pericenter": 289.1389,
        "meta_mean_anomaly": 32.2731,
        "meta_ephemeris_type": 0,
        "meta_classification_type": "U",
        "meta_norad_cat_id": 38356,
        "meta_element_set_no": 999,
        "meta_rev_at_epoch": 4854,
        "meta_bstar": 0,
        "meta_mean_motion_dot": -5.4e-07,
        "meta_mean_motion_ddot": 0,
        "tle_line1": "1 38356U 12030A   25343.14905786 -.00000054  00000+0  00000+0 0  9996",
        "tle_line2": "2 38356   0.0095 336.3973 0003541 289.1389  32.2731  1.00271628 48544"
      },
      "geometry": {
        "type": "Point",
        "coordinates": [
          31.12976984404312,
          0.02390607408616698
        ]
      }
    },
    {
      "type": "Feature",
      "properties": {
        "norad_id": 38740,
        "name": "INTELSAT 20 (IS-20)",
        "group": "intelsat",
        "lat": -0.012691906585783246,
        "lon": -66.36291682685685,
        "alt_km": 35791.50686036263,
        "timestamp": "2025-12-09T09:46:47.314915+00:00",
        "meta_object_name": "INTELSAT 20 (IS-20)",
        "meta_object_id": "2012-043A",
        "meta_epoch": "2025-12-09T03:37:36.247008",
        "meta_mean_motion": 1.00269877,
        "meta_eccentricity": 0.0003101,
        "meta_inclination": 0.001,
        "meta_ra_of_asc_node": 36.655,
        "meta_arg_of_pericenter": 144.7813,
        "meta_mean_anomaly": 19.6244,
        "meta_ephemeris_type": 0,
        "meta_classification_type": "U",
        "meta_norad_cat_id": 38740,
        "meta_element_set_no": 999,
        "meta_rev_at_epoch": 4884,
        "meta_bstar": 0,
        "meta_mean_motion_dot": -2.2e-07,
        "meta_mean_motion_ddot": 0,
        "tle_line1": "1 38740U 12043A   25343.15111397 -.00000022  00000+0  00000+0 0  9990",
        "tle_line2": "2 38740   0.0010  36.6550 0003101 144.7813  19.6244  1.00269877 48843"
      },
      "geometry": {
        "type": "Point",
        "coordinates": [
          -66.36291682685685,
          -0.012691906585783246
        ]
      }
    },
    {
      "type": "Feature",
      "properties": {
        "norad_id": 38749,
        "name": "INTELSAT 21 (IS-21)",
        "group": "intelsat",
        "lat": 0.009601917686815063,
        "lon": 167.0696564233716,
        "alt_km": 35786.18405214537,
        "timestamp": "2025-12-09T09:46:47.314927+00:00",
        "meta_object_name": "INTELSAT 21 (IS-21)",
        "meta_object_id": "2012-045A",
        "meta_epoch": "2025-12-09T03:40:38.494848",
        "meta_mean_motion": 1.00270478,
        "meta_eccentricity": 0.0002174,
        "meta_inclination": 0.0113,
        "meta_ra_of_asc_node": 32.5169,
        "meta_arg_of_pericenter": 222.6895,
        "meta_mean_anomaly": 180.1056,
        "meta_ephemeris_type": 0,
        "meta_classification_type": "U",
        "meta_norad_cat_id": 38749,
        "meta_element_set_no": 999,
        "meta_rev_at_epoch": 4861,
        "meta_bstar": 0,
        "meta_mean_motion_dot": -2.83e-06,
        "meta_mean_motion_ddot": 0,
        "tle_line1": "1 38749U 12045A   25343.15322332 -.00000283  00000+0  00000+0 0  9993",
        "tle_line2": "2 38749   0.0113  32.5169 0002174 222.6895 180.1056  1.00270478 48611"
      },
      "geometry": {
        "type": "Point",
        "coordinates": [
          167.0696564233716,
          0.009601917686815063
        ]
      }
    }
  ]
}